46296,FLOCK 4V-10,2020,93.83,4.0,+,97.38,Active,1,LEO,French Guiana,USA,Commercial,Earth Observation,Vega,1 46296U 20061AA  24023.21272492  .00027985  00000+0  83421-3 0  9997,2 46296  97.3771  96.3933 0001851  36.7048 323.4322 15.34630418187481,15.34630418,0.0001851,LEO
46297,FLOCK 4V-13,2020,93.87,4.0,+,97.38,Active,1,LEO,French Guiana,USA,Commercial,Earth Observation,Vega,1 46297U 20061AB  24023.15242435  .00024661  00000+0  74791-3 0  9993,2 46297  97.3766  96.3036 0000737  47.6772 312.4534 15.34111619187454,15.34111619,7.37e-05,LEO
46298,LEMUR-2-ETHANOAKES,2020,91.74,10.0,+,97.38,Active,1,LEO,French Guiana,USA,Commercial,Earth Observation,Vega,1 46298U 20061AC  24023.19561965  .00170109  00000+0  14102-2 0  9998,2 46298  97.3761 108.0520 0003325 215.8267 144.2772 15.69691000188207,15.69691,0.0003325,LEO
46299,LEMUR-2-OSCARLATOR,2020,89.33,10.0,+,97.37,Active,1,LEO,French Guiana,USA,Commercial,Earth Observation,Vega,1 46299U 20061AD  24023.20707652  .02331925  63555-2  24515-2 0  9999,2 46299  97.3685 112.8147 0004965 304.3896  55.6918 16.12009566188536,16.12009566,0.0004965,LEO
46312,TTU100,2020,93.57,4.0,+,97.38,Active,1,LEO,French Guiana,Estonia,Civil,Earth Observation,Vega,1 46312U 20061AS  24023.30596932  .00051924  00000+0  13380-2 0  9990,2 46312  97.3781  96.9174 0001593 307.2342  52.8758 15.39032531187528,15.39032531,0.0001593,LEO
46313,FLOCK 4V-1,2020,92.71,4.0,+,97.38,Active,1,LEO,French Guiana,USA,Commercial,Earth Observation,Vega,1 46313U 20061AT  24023.17241643  .00134818  00000+0  21184-2 0  9997,2 46313  97.3754  99.2244 0001654 310.7865  49.3244 15.53158867187652,15.53158867,0.0001654,LEO
46319,KEPLER-2 (TARS),2020,94.1,9.0,+,97.37,Active,1,LEO,French Guiana,Canada,Commercial,Communications,Vega,1 46319U 20061AZ  24023.16932177  .00026601  00000+0  90674-3 0  9992,2 46319  97.3748  93.7553 0000463 302.7715  57.3481 15.30344766187365,15.30344766,4.63e-05,LEO
46320,NAPA-1,2020,94.73,10.0,+,97.38,Active,1,LEO,French Guiana,Thailand,Military,Earth Observation,Vega,1 46320U 20061BA  24023.44851798  .00014237  00000+0  66017-3 0  9990,2 46320  97.3767  89.9357 0001327 309.1581  50.9536 15.20167466187133,15.20167466,0.0001327,LEO
46325,STARLINK-1734,2020,95.59,260.0,+,53.05,Active,1,LEO,USA,USA,Commercial,Communications,Falcon,1 46325U 20062A   24023.19503298  .00000047  00000+0  22043-4 0  9993,2 46325  53.0532 217.4371 0001482 103.5710 256.5444 15.06396249188515,15.06396249,0.0001482,LEO
46326,STARLINK-1654,2020,95.59,260.0,+,53.06,Active,1,LEO,USA,USA,Commercial,Communications,Falcon,1 46326U 20062B   24022.92738905  .00002069  00000+0  15781-3 0  9995,2 46326  53.0552 263.8752 0001818  77.4387 282.6805 15.06395602187419,15.06395602,0.0001818,LEO
46327,STARLINK-1673,2020,95.59,260.0,+,53.05,Active,1,LEO,USA,USA,Commercial,Communications,Falcon,1 46327U 20062C   24022.94947658  .00002802  00000+0  20696-3 0  9991,2 46327  53.0533 263.5430 0001350  87.1555 272.9588 15.06396056187239,15.06396056,0.000135,LEO
46328,STARLINK-1686,2020,95.59,260.0,+,53.05,Active,1,LEO,USA,USA,Commercial,Communications,Falcon,1 46328U 20062D   24023.26092887  .00001226  00000+0  10122-3 0  9995,2 46328  53.0526 242.1450 0001438  88.0825 272.0328 15.06398772187560,15.06398772,0.0001438,LEO
46329,STARLINK-1695,2020,95.59,260.0,+,53.05,Active,1,LEO,USA,USA,Commercial,Communications,Falcon,1 46329U 20062E   24022.82967751  .00001269  00000+0  10407-3 0  9991,2 46329  53.0547 244.0738 0001807  98.2883 261.8311 15.06395164187493,15.06395164,0.0001807,LEO
46330,STARLINK-1710,2020,95.59,260.0,+,53.05,Active,1,LEO,USA,USA,Commercial,Communications,Falcon,1 46330U 20062F   24022.88495995  .00000879  00000+0  77905-4 0  9998,2 46330  53.0538 243.8286 0001689  94.6005 265.5177 15.06400310187518,15.0640031,0.0001689,LEO
46331,STARLINK-1719,2020,95.59,260.0,+,53.05,Active,1,LEO,USA,USA,Commercial,Communications,Falcon,1 46331U 20062G   24022.98633846  .00001259  00000+0  10340-3 0  9991,2 46331  53.0538 263.3781 0001625  76.7045 283.4125 15.06389812187246,15.06389812,0.0001625,LEO
46332,STARLINK-1721,2020,94.29,260.0,P,53.04,Active,1,LEO,USA,USA,Commercial,Communications,Falcon,1 46332U 20062H   24023.13986262  .00019618  00000+0  73533-3 0  9994,2 46332  53.0353 230.4917 0002261  62.4873 297.6355 15.27278100187721,15.272781,0.0002261,LEO
46333,STARLINK-1723,2020,95.59,260.0,+,53.05,Active,1,LEO,USA,USA,Commercial,Communications,Falcon,1 46333U 20062J   24022.87942604  .00000665  00000+0  63500-4 0  9993,2 46333  53.0542 263.8496 0001556 129.8744 230.2382 15.06402855187226,15.06402855,0.0001556,LEO
