[{"OBJECT_NAME":"FLOCK 4V-10","OBJECT_ID":"2020-061AA","EPOCH":"2024-01-23T05:06:19.433088","MEAN_MOTION":15.34630418,"ECCENTRICITY":0.0001851,"INCLINATION":97.3771,"RA_OF_ASC_NODE":96.3933,"ARG_OF_PERICENTER":36.7048,"MEAN_ANOMALY":323.4322,"EPHEMERIS_TYPE":0,"CLASSIFICATION_TYPE":"U","NORAD_CAT_ID":46296,"ELEMENT_SET_NO":999,"REV_AT_EPOCH":18748,"BSTAR":0.00083421,"MEAN_MOTION_DOT":0.00027985,"MEAN_MOTION_DDOT":0},{"OBJECT_NAME":"FLOCK 4V-13","OBJECT_ID":"2020-061AB","EPOCH":"2024-01-23T03:39:29.463840","MEAN_MOTION":15.34111619,"ECCENTRICITY":7.37e-5,"INCLINATION":97.3766,"RA_OF_ASC_NODE":96.3036,"ARG_OF_PERICENTER":47.6772,"MEAN_ANOMALY":312.4534,"EPHEMERIS_TYPE":0,"CLASSIFICATION_TYPE":"U","NORAD_CAT_ID":46297,"ELEMENT_SET_NO":999,"REV_AT_EPOCH":18745,"BSTAR":0.00074791,"MEAN_MOTION_DOT":0.00024661,"MEAN_MOTION_DDOT":0},{"OBJECT_NAME":"LEMUR-2-ETHANOAKES","OBJECT_ID":"2020-061AC","EPOCH":"2024-01-23T04:41:41.537760","MEAN_MOTION":15.69691,"ECCENTRICITY":0.0003325,"INCLINATION":97.3761,"RA_OF_ASC_NODE":108.052,"ARG_OF_PERICENTER":215.8267,"MEAN_ANOMALY":144.2772,"EPHEMERIS_TYPE":0,"CLASSIFICATION_TYPE":"U","NORAD_CAT_ID":46298,"ELEMENT_SET_NO":999,"REV_AT_EPOCH":18820,"BSTAR":0.0014102,"MEAN_MOTION_DOT":0.00170109,"MEAN_MOTION_DDOT":0},{"OBJECT_NAME":"LEMUR-2-OSCARLATOR","OBJECT_ID":"2020-061AD","EPOCH":"2024-01-23T04:58:11.411328","MEAN_MOTION":16.12009566,"ECCENTRICITY":0.0004965,"INCLINATION":97.3685,"RA_OF_ASC_NODE":112.8147,"ARG_OF_PERICENTER":304.3896,"MEAN_ANOMALY":55.6918,"EPHEMERIS_TYPE":0,"CLASSIFICATION_TYPE":"U","NORAD_CAT_ID":46299,"ELEMENT_SET_NO":999,"REV_AT_EPOCH":18853,"BSTAR":0.0024515,"MEAN_MOTION_DOT":0.02331925,"MEAN_MOTION_DDOT":0.0063555},{"OBJECT_NAME":"TTU100","OBJECT_ID":"2020-061AS","EPOCH":"2024-01-23T07:20:35.749248","MEAN_MOTION":15.39032531,"ECCENTRICITY":0.0001593,"INCLINATION":97.3781,"RA_OF_ASC_NODE":96.9174,"ARG_OF_PERICENTER":307.2342,"MEAN_ANOMALY":52.8758,"EPHEMERIS_TYPE":0,"CLASSIFICATION_TYPE":"U","NORAD_CAT_ID":46312,"ELEMENT_SET_NO":999,"REV_AT_EPOCH":18752,"BSTAR":0.001338,"MEAN_MOTION_DOT":0.00051924,"MEAN_MOTION_DDOT":0},{"OBJECT_NAME":"FLOCK 4V-1","OBJECT_ID":"2020-061AT","EPOCH":"2024-01-23T04:08:16.779552","MEAN_MOTION":15.53158867,"ECCENTRICITY":0.0001654,"INCLINATION":97.3754,"RA_OF_ASC_NODE":99.2244,"ARG_OF_PERICENTER":310.7865,"MEAN_ANOMALY":49.3244,"EPHEMERIS_TYPE":0,"CLASSIFICATION_TYPE":"U","NORAD_CAT_ID":46313,"ELEMENT_SET_NO":999,"REV_AT_EPOCH":18765,"BSTAR":0.0021184,"MEAN_MOTION_DOT":0.00134818,"MEAN_MOTION_DDOT":0},{"OBJECT_NAME":"KEPLER-2 (TARS)","OBJECT_ID":"2020-061AZ","EPOCH":"2024-01-23T04:03:49.400928","MEAN_MOTION":15.30344766,"ECCENTRICITY":4.63e-5,"INCLINATION":97.3748,"RA_OF_ASC_NODE":93.7553,"ARG_OF_PERICENTER":302.7715,"MEAN_ANOMALY":57.3481,"EPHEMERIS_TYPE":0,"CLASSIFICATION_TYPE":"U","NORAD_CAT_ID":46319,"ELEMENT_SET_NO":999,"REV_AT_EPOCH":18736,"BSTAR":0.00090674,"MEAN_MOTION_DOT":0.00026601,"MEAN_MOTION_DDOT":0},{"OBJECT_NAME":"NAPA-1","OBJECT_ID":"2020-061BA","EPOCH":"2024-01-23T10:45:51.953472","MEAN_MOTION":15.20167466,"ECCENTRICITY":0.0001327,"INCLINATION":97.3767,"RA_OF_ASC_NODE":89.9357,"ARG_OF_PERICENTER":309.1581,"MEAN_ANOMALY":50.9536,"EPHEMERIS_TYPE":0,"CLASSIFICATION_TYPE":"U","NORAD_CAT_ID":46320,"ELEMENT_SET_NO":999,"REV_AT_EPOCH":18713,"BSTAR":0.00066017,"MEAN_MOTION_DOT":0.00014237,"MEAN_MOTION_DDOT":0},{"OBJECT_NAME":"STARLINK-1734","OBJECT_ID":"2020-062A","EPOCH":"2024-01-23T04:40:50.849472","MEAN_MOTION":15.06396249,"ECCENTRICITY":0.0001482,"INCLINATION":53.0532,"RA_OF_ASC_NODE":217.4371,"ARG_OF_PERICENTER":103.571,"MEAN_ANOMALY":256.5444,"EPHEMERIS_TYPE":0,"CLASSIFICATION_TYPE":"U","NORAD_CAT_ID":46325,"ELEMENT_SET_NO":999,"REV_AT_EPOCH":18851,"BSTAR":2.2043e-5,"MEAN_MOTION_DOT":4.7e-7,"MEAN_MOTION_DDOT":0},{"OBJECT_NAME":"STARLINK-1654","OBJECT_ID":"2020-062B","EPOCH":"2024-01-22T22:15:26.413920","MEAN_MOTION":15.06395602,"ECCENTRICITY":0.0001818,"INCLINATION":53.0552,"RA_OF_ASC_NODE":263.8752,"ARG_OF_PERICENTER":77.4387,"MEAN_ANOMALY":282.6805,"EPHEMERIS_TYPE":0,"CLASSIFICATION_TYPE":"U","NORAD_CAT_ID":46326,"ELEMENT_SET_NO":999,"REV_AT_EPOCH":18741,"BSTAR":0.00015781,"MEAN_MOTION_DOT":2.069e-5,"MEAN_MOTION_DDOT":0},{"OBJECT_NAME":"STARLINK-1673","OBJECT_ID":"2020-062C","EPOCH":"2024-01-22T22:47:14.776512","MEAN_MOTION":15.06396056,"ECCENTRICITY":0.000135,"INCLINATION":53.0533,"RA_OF_ASC_NODE":263.543,"ARG_OF_PERICENTER":87.1555,"MEAN_ANOMALY":272.9588,"EPHEMERIS_TYPE":0,"CLASSIFICATION_TYPE":"U","NORAD_CAT_ID":46327,"ELEMENT_SET_NO":999,"REV_AT_EPOCH":18723,"BSTAR":0.00020696,"MEAN_MOTION_DOT":2.802e-5,"MEAN_MOTION_DDOT":0},{"OBJECT_NAME":"STARLINK-1686","OBJECT_ID":"2020-062D","EPOCH":"2024-01-23T06:15:44.254368","MEAN_MOTION":15.06398772,"ECCENTRICITY":0.0001438,"INCLINATION":53.0526,"RA_OF_ASC_NODE":242.145,"ARG_OF_PERICENTER":88.0825,"MEAN_ANOMALY":272.0328,"EPHEMERIS_TYPE":0,"CLASSIFICATION_TYPE":"U","NORAD_CAT_ID":46328,"ELEMENT_SET_NO":999,"REV_AT_EPOCH":18756,"BSTAR":0.00010122,"MEAN_MOTION_DOT":1.226e-5,"MEAN_MOTION_DDOT":0},{"OBJECT_NAME":"STARLINK-1695","OBJECT_ID":"2020-062E","EPOCH":"2024-01-22T19:54:44.136864","MEAN_MOTION":15.06395164,"ECCENTRICITY":0.0001807,"INCLINATION":53.0547,"RA_OF_ASC_NODE":244.0738,"ARG_OF_PERICENTER":98.2883,"MEAN_ANOMALY":261.8311,"EPHEMERIS_TYPE":0,"CLASSIFICATION_TYPE":"U","NORAD_CAT_ID":46329,"ELEMENT_SET_NO":999,"REV_AT_EPOCH":18749,"BSTAR":0.00010407,"MEAN_MOTION_DOT":1.269e-5,"MEAN_MOTION_DDOT":0},{"OBJECT_NAME":"STARLINK-1710","OBJECT_ID":"2020-062F","EPOCH":"2024-01-22T21:14:20.539680","MEAN_MOTION":15.0640031,"ECCENTRICITY":0.0001689,"INCLINATION":53.0538,"RA_OF_ASC_NODE":243.8286,"ARG_OF_PERICENTER":94.6005,"MEAN_ANOMALY":265.5177,"EPHEMERIS_TYPE":0,"CLASSIFICATION_TYPE":"U","NORAD_CAT_ID":46330,"ELEMENT_SET_NO":999,"REV_AT_EPOCH":18751,"BSTAR":7.7905e-5,"MEAN_MOTION_DOT":8.79e-6,"MEAN_MOTION_DDOT":0},{"OBJECT_NAME":"STARLINK-1719","OBJECT_ID":"2020-062G","EPOCH":"2024-01-22T23:40:19.642944","MEAN_MOTION":15.06389812,"ECCENTRICITY":0.0001625,"INCLINATION":53.0538,"RA_OF_ASC_NODE":263.3781,"ARG_OF_PERICENTER":76.7045,"MEAN_ANOMALY":283.4125,"EPHEMERIS_TYPE":0,"CLASSIFICATION_TYPE":"U","NORAD_CAT_ID":46331,"ELEMENT_SET_NO":999,"REV_AT_EPOCH":18724,"BSTAR":0.0001034,"MEAN_MOTION_DOT":1.259e-5,"MEAN_MOTION_DDOT":0},{"OBJECT_NAME":"STARLINK-1721","OBJECT_ID":"2020-062H","EPOCH":"2024-01-23T03:21:24.130368","MEAN_MOTION":15.272781,"ECCENTRICITY":0.0002261,"INCLINATION":53.0353,"RA_OF_ASC_NODE":230.4917,"ARG_OF_PERICENTER":62.4873,"MEAN_ANOMALY":297.6355,"EPHEMERIS_TYPE":0,"CLASSIFICATION_TYPE":"U","NORAD_CAT_ID":46332,"ELEMENT_SET_NO":999,"REV_AT_EPOCH":18772,"BSTAR":0.00073533,"MEAN_MOTION_DOT":0.00019618,"MEAN_MOTION_DDOT":0},{"OBJECT_NAME":"STARLINK-1723","OBJECT_ID":"2020-062J","EPOCH":"2024-01-22T21:06:22.409856","MEAN_MOTION":15.06402855,"ECCENTRICITY":0.0001556,"INCLINATION":53.0542,"RA_OF_ASC_NODE":263.8496,"ARG_OF_PERICENTER":129.8744,"MEAN_ANOMALY":230.2382,"EPHEMERIS_TYPE":0,"CLASSIFICATION_TYPE":"U","NORAD_CAT_ID":46333,"ELEMENT_SET_NO":999,"REV_AT_EPOCH":18722,"BSTAR":6.35e-5,"MEAN_MOTION_DOT":6.65e-6,"MEAN_MOTION_DDOT":0}]
